SL-8 R/B                
1 19257U 88053B   26104.87756042  .00000094  00000+0  38890-4 0  9994
2 19257  74.0485  45.7569 0021015 219.7431 195.8633 14.38938095981807
COSMOS 1975             
1 19573U 88093A   26104.66971064  .00003100  00000+0  11014-3 0  9998
2 19573  82.5169  81.5429 0012891  51.3109 308.9281 15.28546669 24905
SL-14 R/B               
1 19574U 88093B   26104.83074007  .00000235  00000+0  24268-4 0  9991
2 19574  82.5345   8.1261 0019093 279.5048 147.0030 14.85697352  6382
SL-16 R/B               
1 19650U 88102B   26104.36356910 -.00000048  00000+0 -26425-6 0  9994
2 19650  70.9987  76.4316 0015993 310.2767  49.6958 14.16160068931943
INTERCOSMOS 24          
1 20261U 89080A   26104.62752903  .00000282  00000+0  80079-4 0  9992
2 20261  82.6024  80.9958 1187262 209.3483 143.5598 12.59596397671320
SL-14 R/B               
1 20262U 89080C   26104.56281273  .00000217  00000+0  55208-4 0  9997
2 20262  82.5926 150.1665 1230962 102.7957 271.3261 12.50524071664638
DELTA 1 R/B             
1 20323U 89089B   26104.83261090  .00000157  00000+0  47660-4 0  9995
2 20323  97.0676 306.5145 0069308   9.6282 350.6226 14.50692089900977
ARIANE 40 R/B           
1 20443U 90005H   26104.60114477  .00000133  00000+0  55855-4 0  9998
2 20443  98.3014 164.1793 0011409  97.1720 263.0766 14.39894264897972
DELTA 2 R/B(1)          
1 20453U 90008B   26104.82520015  .00037250  00000+0  37193-3 0  9999
2 20453  35.6029 296.8252 0076176 238.7907 120.5347 15.60860304931770
COSMOS 2058             
1 20465U 90010A   26104.19845155  .00001529  00000+0  88178-4 0  9990
2 20465  82.4726  12.4437 0008907 204.0491 156.0324 15.11652033947607
SL-14 R/B               
1 20466U 90010B   26104.83790265  .00000282  00000+0  31182-4 0  9991
2 20466  82.5024 233.4283 0019898 176.5371 183.5986 14.83604948933845
SL-14 R/B               
1 20511U 90018B   26104.62031980  .00000212  00000+0  23660-4 0  9994
2 20511  82.5242 189.5166 0015551 338.6102  21.4460 14.82179277927902
HST                     
1 20580U 90037B   26104.82332691  .00003872  00000+0  12177-3 0  9991
2 20580  28.4729 153.3994 0002225 156.7878 203.2818 15.30048323778854
SL-16 R/B               
1 20625U 90046B   26104.60857116 -.00000287  00000+0 -12345-3 0  9997
2 20625  70.9994 222.4731 0016520 252.8540 107.0773 14.15017190853477
COSMOS 2084             
1 20663U 90055A   26104.31760515  .00001264  00000+0  10043-3 0  9990
2 20663  62.7901 214.0405 0011354 203.4732 156.5851 15.05864496941682
SL-6 R/B(2)             
1 20666U 90055D   26104.81489362  .00000875  00000+0  77584-4 0  9997
2 20666  62.7806 130.9845 0030702 354.8119   5.2658 15.03759003943627
SL-8 R/B                
1 20775U 90078B   26104.84884461  .00008697  00000+0  25652-3 0  9993
2 20775  82.9052 218.7631 0356647 251.8616 104.3470 14.90060015814689
