[{"OBJECT_NAME":"SL-8 R/B","OBJECT_ID":"1988-053B","EPOCH":"2026-04-14T21:03:41.220288","MEAN_MOTION":14.38938095,"ECCENTRICITY":0.0021015,"INCLINATION":74.0485,"RA_OF_ASC_NODE":45.7569,"ARG_OF_PERICENTER":219.7431,"MEAN_ANOMALY":195.8633,"EPHEMERIS_TYPE":0,"CLASSIFICATION_TYPE":"U","NORAD_CAT_ID":19257,"ELEMENT_SET_NO":999,"REV_AT_EPOCH":98180,"BSTAR":3.889e-5,"MEAN_MOTION_DOT":9.4e-7,"MEAN_MOTION_DDOT":0},{"OBJECT_NAME":"COSMOS 1975","OBJECT_ID":"1988-093A","EPOCH":"2026-04-14T16:04:22.999296","MEAN_MOTION":15.28546669,"ECCENTRICITY":0.0012891,"INCLINATION":82.5169,"RA_OF_ASC_NODE":81.5429,"ARG_OF_PERICENTER":51.3109,"MEAN_ANOMALY":308.9281,"EPHEMERIS_TYPE":0,"CLASSIFICATION_TYPE":"U","NORAD_CAT_ID":19573,"ELEMENT_SET_NO":999,"REV_AT_EPOCH":2490,"BSTAR":0.00011014,"MEAN_MOTION_DOT":3.1e-5,"MEAN_MOTION_DDOT":0},{"OBJECT_NAME":"SL-14 R/B","OBJECT_ID":"1988-093B","EPOCH":"2026-04-14T19:56:15.942048","MEAN_MOTION":14.85697352,"ECCENTRICITY":0.0019093,"INCLINATION":82.5345,"RA_OF_ASC_NODE":8.1261,"ARG_OF_PERICENTER":279.5048,"MEAN_ANOMALY":147.003,"EPHEMERIS_TYPE":0,"CLASSIFICATION_TYPE":"U","NORAD_CAT_ID":19574,"ELEMENT_SET_NO":999,"REV_AT_EPOCH":638,"BSTAR":2.4268e-5,"MEAN_MOTION_DOT":2.35e-6,"MEAN_MOTION_DDOT":0},{"OBJECT_NAME":"SL-16 R/B","OBJECT_ID":"1988-102B","EPOCH":"2026-04-14T08:43:32.370240","MEAN_MOTION":14.16160068,"ECCENTRICITY":0.00159932,"INCLINATION":70.9987,"RA_OF_ASC_NODE":76.4316,"ARG_OF_PERICENTER":310.2767,"MEAN_ANOMALY":49.6958,"EPHEMERIS_TYPE":0,"CLASSIFICATION_TYPE":"U","NORAD_CAT_ID":19650,"ELEMENT_SET_NO":999,"REV_AT_EPOCH":93194,"BSTAR":-2.64255e-7,"MEAN_MOTION_DOT":-4.8e-7,"MEAN_MOTION_DDOT":0},{"OBJECT_NAME":"INTERCOSMOS 24","OBJECT_ID":"1989-080A","EPOCH":"2026-04-14T15:03:38.508192","MEAN_MOTION":12.59596397,"ECCENTRICITY":0.1187262,"INCLINATION":82.6024,"RA_OF_ASC_NODE":80.9958,"ARG_OF_PERICENTER":209.3483,"MEAN_ANOMALY":143.5598,"EPHEMERIS_TYPE":0,"CLASSIFICATION_TYPE":"U","NORAD_CAT_ID":20261,"ELEMENT_SET_NO":999,"REV_AT_EPOCH":67132,"BSTAR":8.0079e-5,"MEAN_MOTION_DOT":2.82e-6,"MEAN_MOTION_DDOT":0},{"OBJECT_NAME":"SL-14 R/B","OBJECT_ID":"1989-080C","EPOCH":"2026-04-14T13:30:27.019872","MEAN_MOTION":12.50524071,"ECCENTRICITY":0.1230962,"INCLINATION":82.5926,"RA_OF_ASC_NODE":150.1665,"ARG_OF_PERICENTER":102.7957,"MEAN_ANOMALY":271.3261,"EPHEMERIS_TYPE":0,"CLASSIFICATION_TYPE":"U","NORAD_CAT_ID":20262,"ELEMENT_SET_NO":999,"REV_AT_EPOCH":66463,"BSTAR":5.5208e-5,"MEAN_MOTION_DOT":2.17e-6,"MEAN_MOTION_DDOT":0},{"OBJECT_NAME":"DELTA 1 R/B","OBJECT_ID":"1989-089B","EPOCH":"2026-04-14T19:58:57.581760","MEAN_MOTION":14.50692089,"ECCENTRICITY":0.0069308,"INCLINATION":97.0676,"RA_OF_ASC_NODE":306.5145,"ARG_OF_PERICENTER":9.6282,"MEAN_ANOMALY":350.6226,"EPHEMERIS_TYPE":0,"CLASSIFICATION_TYPE":"U","NORAD_CAT_ID":20323,"ELEMENT_SET_NO":999,"REV_AT_EPOCH":90097,"BSTAR":4.766e-5,"MEAN_MOTION_DOT":1.57e-6,"MEAN_MOTION_DDOT":0},{"OBJECT_NAME":"ARIANE 40 R/B","OBJECT_ID":"1990-005H","EPOCH":"2026-04-14T14:25:38.908128","MEAN_MOTION":14.39894264,"ECCENTRICITY":0.0011409,"INCLINATION":98.3014,"RA_OF_ASC_NODE":164.1793,"ARG_OF_PERICENTER":97.172,"MEAN_ANOMALY":263.0766,"EPHEMERIS_TYPE":0,"CLASSIFICATION_TYPE":"U","NORAD_CAT_ID":20443,"ELEMENT_SET_NO":999,"REV_AT_EPOCH":89797,"BSTAR":5.5855e-5,"MEAN_MOTION_DOT":1.33e-6,"MEAN_MOTION_DDOT":0},{"OBJECT_NAME":"DELTA 2 R/B(1)","OBJECT_ID":"1990-008B","EPOCH":"2026-04-14T19:48:17.292960","MEAN_MOTION":15.60860304,"ECCENTRICITY":0.0076176,"INCLINATION":35.6029,"RA_OF_ASC_NODE":296.8252,"ARG_OF_PERICENTER":238.7907,"MEAN_ANOMALY":120.5347,"EPHEMERIS_TYPE":0,"CLASSIFICATION_TYPE":"U","NORAD_CAT_ID":20453,"ELEMENT_SET_NO":999,"REV_AT_EPOCH":93177,"BSTAR":0.00037193,"MEAN_MOTION_DOT":0.0003725,"MEAN_MOTION_DDOT":0},{"OBJECT_NAME":"COSMOS 2058","OBJECT_ID":"1990-010A","EPOCH":"2026-04-14T04:45:46.213920","MEAN_MOTION":15.11652033,"ECCENTRICITY":0.00089076,"INCLINATION":82.4726,"RA_OF_ASC_NODE":12.4437,"ARG_OF_PERICENTER":204.0491,"MEAN_ANOMALY":156.0324,"EPHEMERIS_TYPE":0,"CLASSIFICATION_TYPE":"U","NORAD_CAT_ID":20465,"ELEMENT_SET_NO":999,"REV_AT_EPOCH":94760,"BSTAR":8.8177612e-5,"MEAN_MOTION_DOT":1.529e-5,"MEAN_MOTION_DDOT":0},{"OBJECT_NAME":"SL-14 R/B","OBJECT_ID":"1990-010B","EPOCH":"2026-04-14T20:06:34.788960","MEAN_MOTION":14.83604948,"ECCENTRICITY":0.0019898,"INCLINATION":82.5024,"RA_OF_ASC_NODE":233.4283,"ARG_OF_PERICENTER":176.5371,"MEAN_ANOMALY":183.5986,"EPHEMERIS_TYPE":0,"CLASSIFICATION_TYPE":"U","NORAD_CAT_ID":20466,"ELEMENT_SET_NO":999,"REV_AT_EPOCH":93384,"BSTAR":3.1182e-5,"MEAN_MOTION_DOT":2.82e-6,"MEAN_MOTION_DDOT":0},{"OBJECT_NAME":"SL-14 R/B","OBJECT_ID":"1990-018B","EPOCH":"2026-04-14T14:53:15.630720","MEAN_MOTION":14.82179277,"ECCENTRICITY":0.0015551,"INCLINATION":82.5242,"RA_OF_ASC_NODE":189.5166,"ARG_OF_PERICENTER":338.6102,"MEAN_ANOMALY":21.446,"EPHEMERIS_TYPE":0,"CLASSIFICATION_TYPE":"U","NORAD_CAT_ID":20511,"ELEMENT_SET_NO":999,"REV_AT_EPOCH":92790,"BSTAR":2.366e-5,"MEAN_MOTION_DOT":2.12e-6,"MEAN_MOTION_DDOT":0},{"OBJECT_NAME":"HST","OBJECT_ID":"1990-037B","EPOCH":"2026-04-14T19:45:35.445024","MEAN_MOTION":15.30048323,"ECCENTRICITY":0.0002225,"INCLINATION":28.4729,"RA_OF_ASC_NODE":153.3994,"ARG_OF_PERICENTER":156.7878,"MEAN_ANOMALY":203.2818,"EPHEMERIS_TYPE":0,"CLASSIFICATION_TYPE":"U","NORAD_CAT_ID":20580,"ELEMENT_SET_NO":999,"REV_AT_EPOCH":77885,"BSTAR":0.00012177,"MEAN_MOTION_DOT":3.872e-5,"MEAN_MOTION_DDOT":0},{"OBJECT_NAME":"SL-16 R/B","OBJECT_ID":"1990-046B","EPOCH":"2026-04-14T14:36:20.548224","MEAN_MOTION":14.1501719,"ECCENTRICITY":0.001652,"INCLINATION":70.9994,"RA_OF_ASC_NODE":222.4731,"ARG_OF_PERICENTER":252.854,"MEAN_ANOMALY":107.0773,"EPHEMERIS_TYPE":0,"CLASSIFICATION_TYPE":"U","NORAD_CAT_ID":20625,"ELEMENT_SET_NO":999,"REV_AT_EPOCH":85347,"BSTAR":-0.00012345,"MEAN_MOTION_DOT":-2.87e-6,"MEAN_MOTION_DDOT":0},{"OBJECT_NAME":"COSMOS 2084","OBJECT_ID":"1990-055A","EPOCH":"2026-04-14T07:37:21.084960","MEAN_MOTION":15.05864496,"ECCENTRICITY":0.00113549,"INCLINATION":62.7901,"RA_OF_ASC_NODE":214.0405,"ARG_OF_PERICENTER":203.4732,"MEAN_ANOMALY":156.5851,"EPHEMERIS_TYPE":0,"CLASSIFICATION_TYPE":"U","NORAD_CAT_ID":20663,"ELEMENT_SET_NO":999,"REV_AT_EPOCH":94168,"BSTAR":0.00010043177,"MEAN_MOTION_DOT":1.264e-5,"MEAN_MOTION_DDOT":0},{"OBJECT_NAME":"SL-6 R/B(2)","OBJECT_ID":"1990-055D","EPOCH":"2026-04-14T19:33:26.808768","MEAN_MOTION":15.03759003,"ECCENTRICITY":0.0030702,"INCLINATION":62.7806,"RA_OF_ASC_NODE":130.9845,"ARG_OF_PERICENTER":354.8119,"MEAN_ANOMALY":5.2658,"EPHEMERIS_TYPE":0,"CLASSIFICATION_TYPE":"U","NORAD_CAT_ID":20666,"ELEMENT_SET_NO":999,"REV_AT_EPOCH":94362,"BSTAR":7.7584e-5,"MEAN_MOTION_DOT":8.75e-6,"MEAN_MOTION_DDOT":0},{"OBJECT_NAME":"SL-8 R/B","OBJECT_ID":"1990-078B","EPOCH":"2026-04-14T20:22:20.174304","MEAN_MOTION":14.90060015,"ECCENTRICITY":0.0356647,"INCLINATION":82.9052,"RA_OF_ASC_NODE":218.7631,"ARG_OF_PERICENTER":251.8616,"MEAN_ANOMALY":104.347,"EPHEMERIS_TYPE":0,"CLASSIFICATION_TYPE":"U","NORAD_CAT_ID":20775,"ELEMENT_SET_NO":999,"REV_AT_EPOCH":81468,"BSTAR":0.00025652,"MEAN_MOTION_DOT":8.697e-5,"MEAN_MOTION_DDOT":0}]
